ONEWEB-0584             
1 54651U 22166K   23308.41903296  .00000055  00000+0  10282-3 0  9993
2 54651  87.9229  74.2420 0002125  97.7394 262.3981 13.21827658 45258
ONEWEB-0585             
1 54652U 22166L   23308.59564837 -.00000093  00000+0 -25665-3 0  9992
2 54652  87.9233  74.2102 0001581  88.1833 271.9482 13.21827536 45288
ONEWEB-0586             
1 54653U 22166M   23308.60827820  .00000093  00000+0  19257-3 0  9997
2 54653  87.9206  74.2455 0001954  96.3239 263.8118 13.21825117 45284
ONEWEB-0587             
1 54654U 22166N   23308.61775677  .00000054  00000+0  99234-4 0  9992
2 54654  87.9222  74.1938 0001236 100.1024 260.0249 13.21822959 45440
ONEWEB-0589             
1 54655U 22166P   23308.60512111  .00000104  00000+0  22073-3 0  9996
2 54655  87.9231  74.2140 0002739 102.3781 257.7660 13.21830301 45305
ONEWEB-0590             
1 54656U 22166Q   23308.62878033  .00000118  00000+0  25329-3 0  9999
2 54656  87.9230  74.2134 0001515 106.1700 253.9601 13.21830384 45294
ONEWEB-0591             
1 54657U 22166R   23308.41430113  .00000192  00000+0  43354-3 0  9990
2 54657  87.9232  74.2558 0001913  99.5083 260.6267 13.21823937 45297
ONEWEB-0592             
1 54658U 22166S   23308.41744986 -.00000274  00000+0 -69544-3 0  9999
2 54658  87.9222  74.2351 0002037 100.0276 260.1087 13.21828051 45172
